SHIJIAN-28 (SJ-28)      
1 66549U 25277A   25362.77744450 -.00000334  00000+0  00000+0 0  9998
2 66549   4.9787 274.7063 0000498 159.4314  59.9874  1.00273476   444
CZ-7A R/B               
1 66550U 25277B   25360.17323146  .04976202 -21169-6  31720-2 0  9999
2 66550  14.3386 261.8830 6428177 204.1589 102.8537  3.54037207   761
USA 568                 
1 66551U 24134K   25336.66670139 -.01709685  00000+0 -74303-2 0  9990
2 66551  53.1571 236.7807 0000717 110.7411 313.9012 15.87051116  2624
GLOBAL-33               
1 66554U 25267A   25362.96529995  .00020412  00000+0  65478-3 0  9991
2 66554  42.0213 323.3130 0005531 202.8640 157.1952 15.31891545  5895
STARLINK-35699          
1 66557U 25268A   25362.91668981  .00034773  00000+0  12693-2 0  9994
2 66557  43.0011  27.1780 0000889 280.3782 346.3535 15.27524275  6049
STARLINK-35695          
1 66558U 25268B   25362.91668981  .00052340  00000+0  18984-2 0  9994
2 66558  43.0010  27.1277 0001579 269.0034  18.8615 15.27573826  6047
STARLINK-35419          
1 66559U 25268C   25362.91668981 -.02367101  00000+0 -91227-1 0  9993
2 66559  43.0006  26.8407 0001712 267.2346 139.5673 15.29572665  6046
STARLINK-35411          
1 66560U 25268D   25362.91668981 -.02290046  00000+0 -86464-1 0  9995
2 66560  42.9999  26.8090 0000964 284.4644 135.5517 15.30104378  6042
STARLINK-35305          
1 66561U 25268E   25362.91668981 -.02003655  00000+0 -71095-1 0  9998
2 66561  43.0004  26.7177 0001550 274.3727 183.8440 15.31598931  6043
STARLINK-35579          
1 66562U 25268F   25362.91668981 -.01704630  00000+0 -62299-1 0  9995
2 66562  43.0007  26.7623 0002082 257.2961 182.1410 15.30657245  6046
STARLINK-35437          
1 66563U 25268G   25362.91668981 -.02019907  00000+0 -69840-1 0  9992
2 66563  43.0003  26.6730 0001505 276.3064 200.1458 15.32444440  6042
STARLINK-35358          
1 66564U 25268H   25362.91668981 -.02008333  00000+0 -67587-1 0  9990
2 66564  43.0005  26.6306 0001442 276.6221 217.5080 15.33277396  6040
